[{"OBJECT_NAME":"TEN-KOH","OBJECT_ID":"2018-084G","EPOCH":"2026-03-09T23:23:52.653408","MEAN_MOTION":15.02465351,"ECCENTRICITY":0.0011972,"INCLINATION":98.0798,"RA_OF_ASC_NODE":257.1735,"ARG_OF_PERICENTER":91.8355,"MEAN_ANOMALY":268.424,"EPHEMERIS_TYPE":0,"CLASSIFICATION_TYPE":"U","NORAD_CAT_ID":43677,"ELEMENT_SET_NO":999,"REV_AT_EPOCH":40126,"BSTAR":0.00025918134,"MEAN_MOTION_DOT":3.377e-5,"MEAN_MOTION_DDOT":0},{"OBJECT_NAME":"STARLINK-5488","OBJECT_ID":"2023-094AJ","EPOCH":"2026-03-09T06:10:23.392416","MEAN_MOTION":15.03027168,"ECCENTRICITY":0.00027415,"INCLINATION":43.0024,"RA_OF_ASC_NODE":19.7799,"ARG_OF_PERICENTER":245.5795,"MEAN_ANOMALY":114.4761,"EPHEMERIS_TYPE":0,"CLASSIFICATION_TYPE":"U","NORAD_CAT_ID":57250,"ELEMENT_SET_NO":999,"REV_AT_EPOCH":14720,"BSTAR":0.0043847897,"MEAN_MOTION_DOT":0.00060325,"MEAN_MOTION_DDOT":0}]
